[{"OBJECT_NAME":"STARLINK-36330","OBJECT_ID":"2026-026S","EPOCH":"2026-03-12T06:00:00.999648","MEAN_MOTION":15.39291424,"ECCENTRICITY":0.00019445,"INCLINATION":97.2853,"RA_OF_ASC_NODE":125.8643,"ARG_OF_PERICENTER":80.5566,"MEAN_ANOMALY":178.2238,"EPHEMERIS_TYPE":0,"CLASSIFICATION_TYPE":"U","NORAD_CAT_ID":67737,"ELEMENT_SET_NO":999,"REV_AT_EPOCH":572,"BSTAR":-0.054694437,"MEAN_MOTION_DOT":-0.01908247,"MEAN_MOTION_DDOT":0},{"OBJECT_NAME":"STARLINK-36327","OBJECT_ID":"2026-026T","EPOCH":"2026-03-12T06:00:00.999648","MEAN_MOTION":15.39213362,"ECCENTRICITY":0.0001852,"INCLINATION":97.2838,"RA_OF_ASC_NODE":125.8707,"ARG_OF_PERICENTER":76.9872,"MEAN_ANOMALY":197.1122,"EPHEMERIS_TYPE":0,"CLASSIFICATION_TYPE":"U","NORAD_CAT_ID":67738,"ELEMENT_SET_NO":999,"REV_AT_EPOCH":572,"BSTAR":-0.053626271,"MEAN_MOTION_DOT":-0.01870355,"MEAN_MOTION_DDOT":0},{"OBJECT_NAME":"STARLINK-36329","OBJECT_ID":"2026-026U","EPOCH":"2026-03-12T06:00:00.999648","MEAN_MOTION":15.402454,"ECCENTRICITY":0.00014411,"INCLINATION":97.2844,"RA_OF_ASC_NODE":125.9064,"ARG_OF_PERICENTER":82.6762,"MEAN_ANOMALY":275.865,"EPHEMERIS_TYPE":0,"CLASSIFICATION_TYPE":"U","NORAD_CAT_ID":67739,"ELEMENT_SET_NO":999,"REV_AT_EPOCH":572,"BSTAR":-0.05164044,"MEAN_MOTION_DOT":-0.01864018,"MEAN_MOTION_DDOT":0},{"OBJECT_NAME":"STARLINK-36737","OBJECT_ID":"2026-026V","EPOCH":"2026-03-12T06:00:00.999648","MEAN_MOTION":15.393754,"ECCENTRICITY":0.0001775,"INCLINATION":97.2838,"RA_OF_ASC_NODE":125.877,"ARG_OF_PERICENTER":81.8637,"MEAN_ANOMALY":206.4643,"EPHEMERIS_TYPE":0,"CLASSIFICATION_TYPE":"U","NORAD_CAT_ID":67740,"ELEMENT_SET_NO":999,"REV_AT_EPOCH":572,"BSTAR":-0.054146883,"MEAN_MOTION_DOT":-0.01895702,"MEAN_MOTION_DDOT":0},{"OBJECT_NAME":"STARLINK-36740","OBJECT_ID":"2026-026W","EPOCH":"2026-03-12T03:24:20.719872","MEAN_MOTION":15.4838486,"ECCENTRICITY":0.0001712,"INCLINATION":97.2859,"RA_OF_ASC_NODE":125.7411,"ARG_OF_PERICENTER":74.7246,"MEAN_ANOMALY":285.4194,"EPHEMERIS_TYPE":0,"CLASSIFICATION_TYPE":"U","NORAD_CAT_ID":67741,"ELEMENT_SET_NO":999,"REV_AT_EPOCH":450,"BSTAR":-0.0055631898,"MEAN_MOTION_DOT":-0.0028394,"MEAN_MOTION_DDOT":0},{"OBJECT_NAME":"STARLINK-36693","OBJECT_ID":"2026-026X","EPOCH":"2026-03-12T06:00:00.999648","MEAN_MOTION":15.45939261,"ECCENTRICITY":0.00018532,"INCLINATION":97.2852,"RA_OF_ASC_NODE":125.8498,"ARG_OF_PERICENTER":76.2489,"MEAN_ANOMALY":158.3498,"EPHEMERIS_TYPE":0,"CLASSIFICATION_TYPE":"U","NORAD_CAT_ID":67742,"ELEMENT_SET_NO":999,"REV_AT_EPOCH":586,"BSTAR":-0.04330448,"MEAN_MOTION_DOT":-0.01891838,"MEAN_MOTION_DDOT":0},{"OBJECT_NAME":"STARLINK-36717","OBJECT_ID":"2026-026Y","EPOCH":"2026-03-12T06:00:00.999648","MEAN_MOTION":15.41690754,"ECCENTRICITY":0.00017737,"INCLINATION":97.2848,"RA_OF_ASC_NODE":125.8734,"ARG_OF_PERICENTER":84.3284,"MEAN_ANOMALY":203.217,"EPHEMERIS_TYPE":0,"CLASSIFICATION_TYPE":"U","NORAD_CAT_ID":67743,"ELEMENT_SET_NO":999,"REV_AT_EPOCH":586,"BSTAR":-0.050897947,"MEAN_MOTION_DOT":-0.01921424,"MEAN_MOTION_DDOT":0},{"OBJECT_NAME":"STARLINK-36692","OBJECT_ID":"2026-026Z","EPOCH":"2026-03-12T06:00:00.999648","MEAN_MOTION":15.43683398,"ECCENTRICITY":0.00018812,"INCLINATION":97.2852,"RA_OF_ASC_NODE":125.8603,"ARG_OF_PERICENTER":84.6079,"MEAN_ANOMALY":173.2036,"EPHEMERIS_TYPE":0,"CLASSIFICATION_TYPE":"U","NORAD_CAT_ID":67744,"ELEMENT_SET_NO":999,"REV_AT_EPOCH":572,"BSTAR":-0.047145387,"MEAN_MOTION_DOT":-0.01905258,"MEAN_MOTION_DDOT":0},{"OBJECT_NAME":"2026-027A","OBJECT_ID":"2026-027A","EPOCH":"2026-03-12T06:35:34.435104","MEAN_MOTION":15.17766784,"ECCENTRICITY":0.00103573,"INCLINATION":97.4902,"RA_OF_ASC_NODE":200.2606,"ARG_OF_PERICENTER":185.1852,"MEAN_ANOMALY":174.9277,"EPHEMERIS_TYPE":0,"CLASSIFICATION_TYPE":"U","NORAD_CAT_ID":67746,"ELEMENT_SET_NO":999,"REV_AT_EPOCH":425,"BSTAR":0.00048301149,"MEAN_MOTION_DOT":9.706e-5,"MEAN_MOTION_DDOT":0},{"OBJECT_NAME":"2026-027B","OBJECT_ID":"2026-027B","EPOCH":"2026-03-12T06:32:53.795904","MEAN_MOTION":15.17867088,"ECCENTRICITY":0.00104606,"INCLINATION":97.4897,"RA_OF_ASC_NODE":200.2609,"ARG_OF_PERICENTER":187.3692,"MEAN_ANOMALY":172.739,"EPHEMERIS_TYPE":0,"CLASSIFICATION_TYPE":"U","NORAD_CAT_ID":67747,"ELEMENT_SET_NO":999,"REV_AT_EPOCH":425,"BSTAR":0.00046401327,"MEAN_MOTION_DOT":9.348e-5,"MEAN_MOTION_DDOT":0},{"OBJECT_NAME":"2026-027C","OBJECT_ID":"2026-027C","EPOCH":"2026-03-12T08:05:47.358816","MEAN_MOTION":15.17855873,"ECCENTRICITY":0.00108562,"INCLINATION":97.4908,"RA_OF_ASC_NODE":200.3325,"ARG_OF_PERICENTER":189.4843,"MEAN_ANOMALY":170.6187,"EPHEMERIS_TYPE":0,"CLASSIFICATION_TYPE":"U","NORAD_CAT_ID":67748,"ELEMENT_SET_NO":999,"REV_AT_EPOCH":426,"BSTAR":0.00032171056,"MEAN_MOTION_DOT":6.457e-5,"MEAN_MOTION_DDOT":0},{"OBJECT_NAME":"2026-027D","OBJECT_ID":"2026-027D","EPOCH":"2026-03-12T07:59:16.156032","MEAN_MOTION":15.18234124,"ECCENTRICITY":0.00104188,"INCLINATION":97.4902,"RA_OF_ASC_NODE":200.3368,"ARG_OF_PERICENTER":194.7392,"MEAN_ANOMALY":165.354,"EPHEMERIS_TYPE":0,"CLASSIFICATION_TYPE":"U","NORAD_CAT_ID":67749,"ELEMENT_SET_NO":999,"REV_AT_EPOCH":421,"BSTAR":0.00050914045,"MEAN_MOTION_DOT":0.00010374,"MEAN_MOTION_DDOT":0},{"OBJECT_NAME":"2026-027E","OBJECT_ID":"2026-027E","EPOCH":"2026-03-12T07:59:42.362016","MEAN_MOTION":15.1817635,"ECCENTRICITY":0.00096906,"INCLINATION":97.4913,"RA_OF_ASC_NODE":200.3403,"ARG_OF_PERICENTER":195.4632,"MEAN_ANOMALY":164.6307,"EPHEMERIS_TYPE":0,"CLASSIFICATION_TYPE":"U","NORAD_CAT_ID":67750,"ELEMENT_SET_NO":999,"REV_AT_EPOCH":426,"BSTAR":0.00046716037,"MEAN_MOTION_DOT":9.495e-5,"MEAN_MOTION_DDOT":0},{"OBJECT_NAME":"2026-027F","OBJECT_ID":"2026-027F","EPOCH":"2026-03-09T19:49:10.682112","MEAN_MOTION":15.18180546,"ECCENTRICITY":0.00096725,"INCLINATION":97.4922,"RA_OF_ASC_NODE":197.863,"ARG_OF_PERICENTER":203.5802,"MEAN_ANOMALY":156.499,"EPHEMERIS_TYPE":0,"CLASSIFICATION_TYPE":"U","NORAD_CAT_ID":67751,"ELEMENT_SET_NO":999,"REV_AT_EPOCH":388,"BSTAR":0.00022390931,"MEAN_MOTION_DOT":4.513e-5,"MEAN_MOTION_DDOT":0},{"OBJECT_NAME":"2026-027G","OBJECT_ID":"2026-027G","EPOCH":"2026-03-12T07:03:59.137344","MEAN_MOTION":15.12190634,"ECCENTRICITY":0.00121409,"INCLINATION":97.4909,"RA_OF_ASC_NODE":200.2375,"ARG_OF_PERICENTER":218.2876,"MEAN_ANOMALY":141.7494,"EPHEMERIS_TYPE":0,"CLASSIFICATION_TYPE":"U","NORAD_CAT_ID":67752,"ELEMENT_SET_NO":999,"REV_AT_EPOCH":425,"BSTAR":0.00050549702,"MEAN_MOTION_DOT":8.679e-5,"MEAN_MOTION_DDOT":0},{"OBJECT_NAME":"JIELONG-3 R/B","OBJECT_ID":"2026-027H","EPOCH":"2026-03-12T07:11:48.056928","MEAN_MOTION":15.79199903,"ECCENTRICITY":0.02031847,"INCLINATION":97.5115,"RA_OF_ASC_NODE":202.5528,"ARG_OF_PERICENTER":235.4016,"MEAN_ANOMALY":122.794,"EPHEMERIS_TYPE":0,"CLASSIFICATION_TYPE":"U","NORAD_CAT_ID":67753,"ELEMENT_SET_NO":999,"REV_AT_EPOCH":439,"BSTAR":0.00075350831,"MEAN_MOTION_DOT":0.00627953,"MEAN_MOTION_DDOT":2.360799e-6}]
